CCSDS_OMM_VERS = 2.0
CREATION_DATE  = 
ORIGINATOR     = 

OBJECT_NAME    = SL-14 R/B
OBJECT_ID      = 1991-042B
CENTER_NAME    = EARTH
REF_FRAME      = TEME
TIME_SYSTEM    = UTC
MEAN_ELEMENT_THEORY = SGP/SGP4

EPOCH          = 2025-12-17T13:50:20.643648
MEAN_MOTION    = 14.81743391
ECCENTRICITY   = .00178621
INCLINATION    = 82.4931
RA_OF_ASC_NODE = 297.1873
ARG_OF_PERICENTER = 146.4275
MEAN_ANOMALY   = 213.8075

EPHEMERIS_TYPE = 0
CLASSIFICATION_TYPE = U
NORAD_CAT_ID   = 21423
ELEMENT_SET_NO = 999
REV_AT_EPOCH   = 84091
BSTAR          = .457913E-4
MEAN_MOTION_DOT = .385E-5
MEAN_MOTION_DDOT = 0

CCSDS_OMM_VERS = 2.0
CREATION_DATE  = 
ORIGINATOR     = 

OBJECT_NAME    = ERS-1
OBJECT_ID      = 1991-050A
CENTER_NAME    = EARTH
REF_FRAME      = TEME
TIME_SYSTEM    = UTC
MEAN_ELEMENT_THEORY = SGP/SGP4

EPOCH          = 2025-12-17T14:28:15.260160
MEAN_MOTION    = 14.39368549
ECCENTRICITY   = .00330311
INCLINATION    = 98.7902
RA_OF_ASC_NODE = 2.7794
ARG_OF_PERICENTER = 86.0630
MEAN_ANOMALY   = 274.4332

EPHEMERIS_TYPE = 0
CLASSIFICATION_TYPE = U
NORAD_CAT_ID   = 21574
ELEMENT_SET_NO = 999
REV_AT_EPOCH   = 80392
BSTAR          = .10435169E-3
MEAN_MOTION_DOT = .28E-5
MEAN_MOTION_DDOT = 0

CCSDS_OMM_VERS = 2.0
CREATION_DATE  = 
ORIGINATOR     = 

OBJECT_NAME    = ARIANE 40 R/B
OBJECT_ID      = 1991-050F
CENTER_NAME    = EARTH
REF_FRAME      = TEME
TIME_SYSTEM    = UTC
MEAN_ELEMENT_THEORY = SGP/SGP4

EPOCH          = 2025-12-17T15:22:57.486432
MEAN_MOTION    = 14.42817411
ECCENTRICITY   = .00024867
INCLINATION    = 98.2161
RA_OF_ASC_NODE = 41.8946
ARG_OF_PERICENTER = 344.2426
MEAN_ANOMALY   = 15.8687

EPHEMERIS_TYPE = 0
CLASSIFICATION_TYPE = U
NORAD_CAT_ID   = 21610
ELEMENT_SET_NO = 999
REV_AT_EPOCH   = 80716
BSTAR          = .9931865E-4
MEAN_MOTION_DOT = .289E-5
MEAN_MOTION_DDOT = 0

CCSDS_OMM_VERS = 2.0
CREATION_DATE  = 
ORIGINATOR     = 

OBJECT_NAME    = INTERCOSMOS 25
OBJECT_ID      = 1991-086A
CENTER_NAME    = EARTH
REF_FRAME      = TEME
TIME_SYSTEM    = UTC
MEAN_ELEMENT_THEORY = SGP/SGP4

EPOCH          = 2025-12-17T12:09:17.637696
MEAN_MOTION    = 12.11744479
ECCENTRICITY   = .1486407
INCLINATION    = 82.6066
RA_OF_ASC_NODE = 359.6931
ARG_OF_PERICENTER = 294.1206
MEAN_ANOMALY   = 51.1569

EPHEMERIS_TYPE = 0
CLASSIFICATION_TYPE = U
NORAD_CAT_ID   = 21819
ELEMENT_SET_NO = 999
REV_AT_EPOCH   = 48673
BSTAR          = .38612269E-3
MEAN_MOTION_DOT = .1939E-4
MEAN_MOTION_DDOT = 0

CCSDS_OMM_VERS = 2.0
CREATION_DATE  = 
ORIGINATOR     = 

OBJECT_NAME    = SL-8 R/B
OBJECT_ID      = 1992-008B
CENTER_NAME    = EARTH
REF_FRAME      = TEME
TIME_SYSTEM    = UTC
MEAN_ELEMENT_THEORY = SGP/SGP4

EPOCH          = 2025-12-17T11:45:22.057632
MEAN_MOTION    = 13.75960035
ECCENTRICITY   = .00348996
INCLINATION    = 82.9267
RA_OF_ASC_NODE = 328.9129
ARG_OF_PERICENTER = 6.6863
MEAN_ANOMALY   = 109.6015

EPHEMERIS_TYPE = 0
CLASSIFICATION_TYPE = U
NORAD_CAT_ID   = 21876
ELEMENT_SET_NO = 999
REV_AT_EPOCH   = 69811
BSTAR          = .11266349E-3
MEAN_MOTION_DOT = .125E-5
MEAN_MOTION_DDOT = 0

CCSDS_OMM_VERS = 2.0
CREATION_DATE  = 
ORIGINATOR     = 

OBJECT_NAME    = SL-8 R/B
OBJECT_ID      = 1992-020B
CENTER_NAME    = EARTH
REF_FRAME      = TEME
TIME_SYSTEM    = UTC
MEAN_ELEMENT_THEORY = SGP/SGP4

EPOCH          = 2025-12-17T15:22:11.596800
MEAN_MOTION    = 13.75528236
ECCENTRICITY   = .0029224
INCLINATION    = 82.9300
RA_OF_ASC_NODE = 214.6785
ARG_OF_PERICENTER = 164.4733
MEAN_ANOMALY   = 249.5128

EPHEMERIS_TYPE = 0
CLASSIFICATION_TYPE = U
NORAD_CAT_ID   = 21938
ELEMENT_SET_NO = 999
REV_AT_EPOCH   = 68985
BSTAR          = .1075409E-3
MEAN_MOTION_DOT = .119E-5
MEAN_MOTION_DDOT = 0

CCSDS_OMM_VERS = 2.0
CREATION_DATE  = 
ORIGINATOR     = 

OBJECT_NAME    = USA 81
OBJECT_ID      = 1992-023A
CENTER_NAME    = EARTH
REF_FRAME      = TEME
TIME_SYSTEM    = UTC
MEAN_ELEMENT_THEORY = SGP/SGP4

EPOCH          = 2025-12-17T13:47:52.381248
MEAN_MOTION    = 14.32328639
ECCENTRICITY   = .00012256
INCLINATION    = 85.0078
RA_OF_ASC_NODE = 178.7875
ARG_OF_PERICENTER = 71.7017
MEAN_ANOMALY   = 288.4309

EPHEMERIS_TYPE = 0
CLASSIFICATION_TYPE = U
NORAD_CAT_ID   = 21949
ELEMENT_SET_NO = 999
REV_AT_EPOCH   = 8303
BSTAR          = .57964699E-4
MEAN_MOTION_DOT = .176E-5
MEAN_MOTION_DDOT = 0

CCSDS_OMM_VERS = 2.0
CREATION_DATE  = 
ORIGINATOR     = 

OBJECT_NAME    = COSMOS 2219
OBJECT_ID      = 1992-076A
CENTER_NAME    = EARTH
REF_FRAME      = TEME
TIME_SYSTEM    = UTC
MEAN_ELEMENT_THEORY = SGP/SGP4

EPOCH          = 2025-12-17T14:32:07.202688
MEAN_MOTION    = 14.14063405
ECCENTRICITY   = .00191555
INCLINATION    = 71.0571
RA_OF_ASC_NODE = 189.6608
ARG_OF_PERICENTER = 320.2742
MEAN_ANOMALY   = 39.6976

EPHEMERIS_TYPE = 0
CLASSIFICATION_TYPE = U
NORAD_CAT_ID   = 22219
ELEMENT_SET_NO = 999
REV_AT_EPOCH   = 70677
BSTAR          = .91831569E-4
MEAN_MOTION_DOT = .128E-5
MEAN_MOTION_DDOT = 0

CCSDS_OMM_VERS = 2.0
CREATION_DATE  = 
ORIGINATOR     = 

OBJECT_NAME    = SL-16 R/B
OBJECT_ID      = 1992-076B
CENTER_NAME    = EARTH
REF_FRAME      = TEME
TIME_SYSTEM    = UTC
MEAN_ELEMENT_THEORY = SGP/SGP4

EPOCH          = 2025-12-17T10:57:18.792000
MEAN_MOTION    = 14.16841870
ECCENTRICITY   = .0014529
INCLINATION    = 71.0005
RA_OF_ASC_NODE = 1.5960
ARG_OF_PERICENTER = 227.6136
MEAN_ANOMALY   = 239.6142

EPHEMERIS_TYPE = 0
CLASSIFICATION_TYPE = U
NORAD_CAT_ID   = 22220
ELEMENT_SET_NO = 999
REV_AT_EPOCH   = 71018
BSTAR          = .1258573E-3
MEAN_MOTION_DOT = .205E-5
MEAN_MOTION_DDOT = 0

CCSDS_OMM_VERS = 2.0
CREATION_DATE  = 
ORIGINATOR     = 

OBJECT_NAME    = COSMOS 2221
OBJECT_ID      = 1992-080A
CENTER_NAME    = EARTH
REF_FRAME      = TEME
TIME_SYSTEM    = UTC
MEAN_ELEMENT_THEORY = SGP/SGP4

EPOCH          = 2025-12-17T12:00:55.529280
MEAN_MOTION    = 14.95778390
ECCENTRICITY   = .00162021
INCLINATION    = 82.5038
RA_OF_ASC_NODE = 357.7682
ARG_OF_PERICENTER = 107.0129
MEAN_ANOMALY   = 253.2870

EPHEMERIS_TYPE = 0
CLASSIFICATION_TYPE = U
NORAD_CAT_ID   = 22236
ELEMENT_SET_NO = 999
REV_AT_EPOCH   = 76850
BSTAR          = .15053384E-3
MEAN_MOTION_DOT = .1708E-4
MEAN_MOTION_DDOT = 0

CCSDS_OMM_VERS = 2.0
CREATION_DATE  = 
ORIGINATOR     = 

OBJECT_NAME    = SL-16 R/B
OBJECT_ID      = 1992-093B
CENTER_NAME    = EARTH
REF_FRAME      = TEME
TIME_SYSTEM    = UTC
MEAN_ELEMENT_THEORY = SGP/SGP4

EPOCH          = 2025-12-17T14:53:21.911136
MEAN_MOTION    = 14.15433042
ECCENTRICITY   = .00022812
INCLINATION    = 71.0201
RA_OF_ASC_NODE = 176.5504
ARG_OF_PERICENTER = 54.8091
MEAN_ANOMALY   = 305.3245

EPHEMERIS_TYPE = 0
CLASSIFICATION_TYPE = U
NORAD_CAT_ID   = 22285
ELEMENT_SET_NO = 999
REV_AT_EPOCH   = 70154
BSTAR          = .16682102E-3
MEAN_MOTION_DOT = .278E-5
MEAN_MOTION_DDOT = 0

CCSDS_OMM_VERS = 2.0
CREATION_DATE  = 
ORIGINATOR     = 

OBJECT_NAME    = COSMOS 2228
OBJECT_ID      = 1992-094A
CENTER_NAME    = EARTH
REF_FRAME      = TEME
TIME_SYSTEM    = UTC
MEAN_ELEMENT_THEORY = SGP/SGP4

EPOCH          = 2025-12-17T13:41:41.701920
MEAN_MOTION    = 14.96751574
ECCENTRICITY   = .00168556
INCLINATION    = 82.5179
RA_OF_ASC_NODE = 315.9117
ARG_OF_PERICENTER = 214.0301
MEAN_ANOMALY   = 145.9842

EPHEMERIS_TYPE = 0
CLASSIFICATION_TYPE = U
NORAD_CAT_ID   = 22286
ELEMENT_SET_NO = 999
REV_AT_EPOCH   = 76377
BSTAR          = .16875421E-3
MEAN_MOTION_DOT = .196E-4
MEAN_MOTION_DDOT = 0

