SL-14 R/B               
1 21423U 91042B   25351.57662782  .00000385  00000+0  45791-4 0  9992
2 21423  82.4931 297.1873 0017862 146.4275 213.8075 14.81743391840910
ERS-1                   
1 21574U 91050A   25351.60295440  .00000280  00000+0  10435-3 0  9995
2 21574  98.7902   2.7794 0033031  86.0630 274.4332 14.39368549803927
ARIANE 40 R/B           
1 21610U 91050F   25351.64094313  .00000289  00000+0  99319-4 0  9994
2 21610  98.2161  41.8946 0002486 344.2426  15.8687 14.42817411807166
INTERCOSMOS 25          
1 21819U 91086A   25351.50645414  .00001939  00000+0  38612-3 0  9994
2 21819  82.6066 359.6931 1486407 294.1206  51.1569 12.11744479486736
SL-8 R/B                
1 21876U 92008B   25351.48983863  .00000125  00000+0  11266-3 0  9994
2 21876  82.9267 328.9129 0034899   6.6863 109.6015 13.75960035698112
SL-8 R/B                
1 21938U 92020B   25351.64041200  .00000119  00000+0  10754-3 0  9999
2 21938  82.9300 214.6785 0029224 164.4733 249.5128 13.75528236689856
USA 81                  
1 21949U 92023A   25351.57491182  .00000176  00000+0  57965-4 0  9993
2 21949  85.0078 178.7875 0001225  71.7017 288.4309 14.32328639 83030
COSMOS 2219             
1 22219U 92076A   25351.60563892  .00000128  00000+0  91832-4 0  9992
2 22219  71.0571 189.6608 0019155 320.2742  39.6976 14.14063405706773
SL-16 R/B               
1 22220U 92076B   25351.45646750  .00000205  00000+0  12586-3 0  9996
2 22220  71.0005   1.5960 0014529 227.6136 239.6142 14.16841870710186
COSMOS 2221             
1 22236U 92080A   25351.50064270  .00001708  00000+0  15053-3 0  9996
2 22236  82.5038 357.7682 0016202 107.0129 253.2870 14.95778390768508
SL-16 R/B               
1 22285U 92093B   25351.62039249  .00000278  00000+0  16682-3 0  9995
2 22285  71.0201 176.5504 0002281  54.8091 305.3245 14.15433042701546
COSMOS 2228             
1 22286U 92094A   25351.57062155  .00001960  00000+0  16875-3 0  9996
2 22286  82.5179 315.9117 0016855 214.0301 145.9842 14.96751574763779
